{
  "type": "FeatureCollection",
  "features": [
    {
      "type": "Feature",
      "properties": {
        "norad_id": 30604,
        "name": "FENGYUN 1C DEB",
        "group": "fengyun-1c-debris",
        "lat": -29.5365872019746,
        "lon": -164.13355212037953,
        "alt_km": 960.3406926349253,
        "timestamp": "2025-12-11T18:59:46.350880+00:00",
        "meta_object_name": "FENGYUN 1C DEB",
        "meta_object_id": "1999-025AMK",
        "meta_epoch": "2025-12-11T01:17:16.624032",
        "meta_mean_motion": 14.23605391,
        "meta_eccentricity": 0.02097954,
        "meta_inclination": 98.4026,
        "meta_ra_of_asc_node": 19.9652,
        "meta_arg_of_pericenter": 11.7964,
        "meta_mean_anomaly": 19.5484,
        "meta_ephemeris_type": 0,
        "meta_classification_type": "U",
        "meta_norad_cat_id": 30604,
        "meta_element_set_no": 999,
        "meta_rev_at_epoch": 97815,
        "meta_bstar": 0.00041915701,
        "meta_mean_motion_dot": 1.153e-05,
        "meta_mean_motion_ddot": 0,
        "tle_line1": "1 30604U 99025AMK 25345.05366463  .00001153  00000+0  41916-3 0  9993",
        "tle_line2": "2 30604  98.4026  19.9652 0209795  11.7964  19.5484 14.23605391978151"
      },
      "geometry": {
        "type": "Point",
        "coordinates": [
          -164.13355212037953,
          -29.5365872019746
        ]
      }
    },
    {
      "type": "Feature",
      "properties": {
        "norad_id": 30606,
        "name": "FENGYUN 1C DEB",
        "group": "fengyun-1c-debris",
        "lat": 79.52523826210674,
        "lon": -54.37595104372885,
        "alt_km": 608.1062651683123,
        "timestamp": "2025-12-11T18:59:46.350894+00:00",
        "meta_object_name": "FENGYUN 1C DEB",
        "meta_object_id": "1999-025AMM",
        "meta_epoch": "2025-12-11T07:10:21.480672",
        "meta_mean_motion": 14.5761625,
        "meta_eccentricity": 0.02141841,
        "meta_inclination": 98.0965,
        "meta_ra_of_asc_node": 355.4946,
        "meta_arg_of_pericenter": 141.6401,
        "meta_mean_anomaly": 240.1409,
        "meta_ephemeris_type": 0,
        "meta_classification_type": "U",
        "meta_norad_cat_id": 30606,
        "meta_element_set_no": 999,
        "meta_rev_at_epoch": 99221,
        "meta_bstar": 0.00090570554,
        "meta_mean_motion_dot": 5.611e-05,
        "meta_mean_motion_ddot": 0,
        "tle_line1": "1 30606U 99025AMM 25345.29885973  .00005611  00000+0  90571-3 0  9997",
        "tle_line2": "2 30606  98.0965 355.4946 0214184 141.6401 240.1409 14.57616250992217"
      },
      "geometry": {
        "type": "Point",
        "coordinates": [
          -54.37595104372885,
          79.52523826210674
        ]
      }
    },
    {
      "type": "Feature",
      "properties": {
        "norad_id": 30608,
        "name": "FENGYUN 1C DEB",
        "group": "fengyun-1c-debris",
        "lat": -80.9866839281186,
        "lon": 123.5748846533931,
        "alt_km": 804.2991837400468,
        "timestamp": "2025-12-11T18:59:46.350905+00:00",
        "meta_object_name": "FENGYUN 1C DEB",
        "meta_object_id": "1999-025AMP",
        "meta_epoch": "2025-12-11T04:22:34.256352",
        "meta_mean_motion": 14.28461634,
        "meta_eccentricity": 0.0015962,
        "meta_inclination": 98.7102,
        "meta_ra_of_asc_node": 47.8489,
        "meta_arg_of_pericenter": 183.4443,
        "meta_mean_anomaly": 197.8353,
        "meta_ephemeris_type": 0,
        "meta_classification_type": "U",
        "meta_norad_cat_id": 30608,
        "meta_element_set_no": 999,
        "meta_rev_at_epoch": 97417,
        "meta_bstar": 0.0017431777,
        "meta_mean_motion_dot": 4.327e-05,
        "meta_mean_motion_ddot": 0,
        "tle_line1": "1 30608U 99025AMP 25345.18234093  .00004327  00000+0  17432-2 0  9995",
        "tle_line2": "2 30608  98.7102  47.8489 0015962 183.4443 197.8353 14.28461634974179"
      },
      "geometry": {
        "type": "Point",
        "coordinates": [
          123.5748846533931,
          -80.9866839281186
        ]
      }
    },
    {
      "type": "Feature",
      "properties": {
        "norad_id": 30609,
        "name": "FENGYUN 1C DEB",
        "group": "fengyun-1c-debris",
        "lat": -40.37967663355377,
        "lon": 75.08314844946901,
        "alt_km": 944.8872811619667,
        "timestamp": "2025-12-11T18:59:46.350915+00:00",
        "meta_object_name": "FENGYUN 1C DEB",
        "meta_object_id": "1999-025AMQ",
        "meta_epoch": "2025-12-06T17:08:31.037568",
        "meta_mean_motion": 14.11134801,
        "meta_eccentricity": 0.01189523,
        "meta_inclination": 98.5675,
        "meta_ra_of_asc_node": 257.6035,
        "meta_arg_of_pericenter": 69.9172,
        "meta_mean_anomaly": 291.4756,
        "meta_ephemeris_type": 0,
        "meta_classification_type": "U",
        "meta_norad_cat_id": 30609,
        "meta_element_set_no": 999,
        "meta_rev_at_epoch": 95643,
        "meta_bstar": 0.0036904109,
        "meta_mean_motion_dot": 7.069e-05,
        "meta_mean_motion_ddot": 0,
        "tle_line1": "1 30609U 99025AMQ 25340.71424812  .00007069  00000+0  36904-2 0  9991",
        "tle_line2": "2 30609  98.5675 257.6035 0118952  69.9172 291.4756 14.11134801956433"
      },
      "geometry": {
        "type": "Point",
        "coordinates": [
          75.08314844946901,
          -40.37967663355377
        ]
      }
    },
    {
      "type": "Feature",
      "properties": {
        "norad_id": 30612,
        "name": "FENGYUN 1C DEB",
        "group": "fengyun-1c-debris",
        "lat": 69.74924823290517,
        "lon": -50.95549077746617,
        "alt_km": 466.7466564288061,
        "timestamp": "2025-12-11T18:59:46.350926+00:00",
        "meta_object_name": "FENGYUN 1C DEB",
        "meta_object_id": "1999-025AMT",
        "meta_epoch": "2025-12-10T18:19:23.311200",
        "meta_mean_motion": 15.29135228,
        "meta_eccentricity": 0.00310711,
        "meta_inclination": 99.0849,
        "meta_ra_of_asc_node": 333.4948,
        "meta_arg_of_pericenter": 355.8852,
        "meta_mean_anomaly": 179.2646,
        "meta_ephemeris_type": 0,
        "meta_classification_type": "U",
        "meta_norad_cat_id": 30612,
        "meta_element_set_no": 999,
        "meta_rev_at_epoch": 227,
        "meta_bstar": 0.0052586045,
        "meta_mean_motion_dot": 0.00153666,
        "meta_mean_motion_ddot": 0,
        "tle_line1": "1 30612U 99025AMT 25344.76346425  .00153666  00000+0  52586-2 0  9996",
        "tle_line2": "2 30612  99.0849 333.4948 0031071 355.8852 179.2646 15.29135228  2279"
      },
      "geometry": {
        "type": "Point",
        "coordinates": [
          -50.95549077746617,
          69.74924823290517
        ]
      }
    },
    {
      "type": "Feature",
      "properties": {
        "norad_id": 30613,
        "name": "FENGYUN 1C DEB",
        "group": "fengyun-1c-debris",
        "lat": -46.06553630262686,
        "lon": -83.27725954228306,
        "alt_km": 495.33504146415453,
        "timestamp": "2025-12-11T18:59:46.350936+00:00",
        "meta_object_name": "FENGYUN 1C DEB",
        "meta_object_id": "1999-025AMU",
        "meta_epoch": "2025-12-11T06:55:18.912576",
        "meta_mean_motion": 15.16880232,
        "meta_eccentricity": 0.00674714,
        "meta_inclination": 98.3067,
        "meta_ra_of_asc_node": 104.8939,
        "meta_arg_of_pericenter": 172.3028,
        "meta_mean_anomaly": 187.9255,
        "meta_ephemeris_type": 0,
        "meta_classification_type": "U",
        "meta_norad_cat_id": 30613,
        "meta_element_set_no": 999,
        "meta_rev_at_epoch": 99374,
        "meta_bstar": 0.0087309922,
        "meta_mean_motion_dot": 0.00186405,
        "meta_mean_motion_ddot": 0,
        "tle_line1": "1 30613U 99025AMU 25345.28841334  .00186405  00000+0  87310-2 0  9994",
        "tle_line2": "2 30613  98.3067 104.8939 0067471 172.3028 187.9255 15.16880232993745"
      },
      "geometry": {
        "type": "Point",
        "coordinates": [
          -83.27725954228306,
          -46.06553630262686
        ]
      }
    },
    {
      "type": "Feature",
      "properties": {
        "norad_id": 30616,
        "name": "FENGYUN 1C DEB",
        "group": "fengyun-1c-debris",
        "lat": -32.08705708351052,
        "lon": -141.33737492255182,
        "alt_km": 926.3441324920286,
        "timestamp": "2025-12-11T18:59:46.350947+00:00",
        "meta_object_name": "FENGYUN 1C DEB",
        "meta_object_id": "1999-025AMX",
        "meta_epoch": "2025-12-10T02:21:28.634112",
        "meta_mean_motion": 13.36001981,
        "meta_eccentricity": 0.03801159,
        "meta_inclination": 98.6414,
        "meta_ra_of_asc_node": 42.6953,
        "meta_arg_of_pericenter": 262.5873,
        "meta_mean_anomaly": 93.1923,
        "meta_ephemeris_type": 0,
        "meta_classification_type": "U",
        "meta_norad_cat_id": 30616,
        "meta_element_set_no": 999,
        "meta_rev_at_epoch": 91665,
        "meta_bstar": 0.0026398993,
        "meta_mean_motion_dot": 2.004e-05,
        "meta_mean_motion_ddot": 0,
        "tle_line1": "1 30616U 99025AMX 25344.09824808  .00002004  00000+0  26399-2 0  9994",
        "tle_line2": "2 30616  98.6414  42.6953 0380115 262.5873  93.1923 13.36001981916656"
      },
      "geometry": {
        "type": "Point",
        "coordinates": [
          -141.33737492255182,
          -32.08705708351052
        ]
      }
    }
  ]
}